X,Y,施設名,施設名かな,施設名（施設名かな）,所在地,地区名,詳細情報,カテゴリ,アイコン番号,施設ID
135.5240926,34.65789994,五条公園,ごじょうこうえん,五条公園（ごじょうこうえん）,,天王寺区,便器数　　男性用　小：２　　男女兼用　和：１,公衆トイレ/公衆便所,169,29422
135.45428,34.64383192,鶴町北公園,つるまちきたこうえん,鶴町北公園（つるまちきたこうえん）,,大正区,便器数　　男性用　小：１　　男女兼用　和：１,公衆トイレ/公衆便所,169,29420
135.5486893,34.66864056,大今里公園,おおいまざとこうえん,大今里公園（おおいまざとこうえん）,,東成区,便器数　　男性用　和：１　小：２　　女性用　和：１,公衆トイレ/公衆便所,169,29438
135.5176806,34.69202178,毛馬桜之宮公園,けまさくらのみやこうえん,毛馬桜之宮公園（けまさくらのみやこうえん）,,北区,便器数　　男性用　和：１　小：２　　女性用　和：２,公衆トイレ/公衆便所,169,29331
135.5218921,34.62301483,山坂公園,やまさかこうえん,山坂公園（やまさかこうえん）,,東住吉区,便器数　　男性用　小：２　　男女兼用　和：１,公衆トイレ/公衆便所,169,29442
135.526354,34.738932,菅原公園　公衆トイレ,すがはらこうえん　こうしゅうといれ,菅原公園　公衆トイレ（すがはらこうえん　こうしゅうといれ）,東淀川区菅原３丁目３−１２,東淀川区,,公衆トイレ/公衆便所,169,95136
135.4021355,34.63704092,野鳥園臨港緑地（公衆便所）,やちょうえんりんこうりょくちこうしゅうべんじょ,野鳥園臨港緑地（公衆便所）（やちょうえんりんこうりょくちこうしゅうべんじょ）,,住之江区,【男性用】和：1　小：2　【女性用】和：1,公衆トイレ/公衆便所,169,29696
135.4028726,34.61215186,南港魚つり園護岸（公衆便所）,なんこううおつりえんごがんこうしゅうべんじょ,南港魚つり園護岸（公衆便所）（なんこううおつりえんごがんこうしゅうべんじょ）,,住之江区,【男性用】和：1　小：2　【女性用】和：2,公衆トイレ/公衆便所,169,29699
135.4018242,34.61484003,南港魚つり園護岸（公衆便所）,なんこううおつりえんごがんこうしゅうべんじょ,南港魚つり園護岸（公衆便所）（なんこううおつりえんごがんこうしゅうべんじょ）,,住之江区,【男性用】小：2　【男女兼用】和：1,公衆トイレ/公衆便所,169,29698
135.5128452,34.67039931,瓦屋町　公衆トイレ2,かわらやまちこうえん　こうしゅうといれ2,瓦屋町　公衆トイレ2（かわらやまちこうえん　こうしゅうといれ2）,,中央区,,公衆トイレ/公衆便所,169,29685
135.5509086,34.64793058,巽大地公園　公衆トイレ,たつみだいちこうえん　こうしゅうといれ,巽大地公園　公衆トイレ（たつみだいちこうえん　こうしゅうといれ）,,生野区,,公衆トイレ/公衆便所,169,29622
135.4927072,34.59673731,おりおの南公園　公衆トイレ,おりおのみなみこうえん　こうしゅうといれ,おりおの南公園　公衆トイレ（おりおのみなみこうえん　こうしゅうといれ）,,住吉区,,公衆トイレ/公衆便所,169,29646
135.491733,34.60236628,清水丘公園　公衆トイレ,しみずがおかこうえん　こうしゅうといれ,清水丘公園　公衆トイレ（しみずがおかこうえん　こうしゅうといれ）,,住吉区,,公衆トイレ/公衆便所,169,29645
135.4837391,34.61068428,浜口西公園　公衆トイレ,はまぐちにしこうえん　こうしゅうといれ,浜口西公園　公衆トイレ（はまぐちにしこうえん　こうしゅうといれ）,,住之江区,,公衆トイレ/公衆便所,169,29634
135.4333322,34.62967503,南港中央公園　公衆トイレ４,なんこうちゅうおうこうえん　こうしゅうといれ４,南港中央公園　公衆トイレ４（なんこうちゅうおうこうえん　こうしゅうといれ４）,,住之江区,,公衆トイレ/公衆便所,169,29643
135.4758234,34.62240681,北加賀屋公園　公衆トイレ,きたかがやこうえん　こうしゅうといれ,北加賀屋公園　公衆トイレ（きたかがやこうえん　こうしゅうといれ）,,住之江区,,公衆トイレ/公衆便所,169,29635
135.4924182,34.62774283,玉出公園,たまでこうえん,玉出公園（たまでこうえん）,,西成区,便器数　　男性用　小：２　　男女兼用　和：１,公衆トイレ/公衆便所,169,29556
135.4973257,34.63263314,天下茶屋公園　公衆トイレ,てんがちゃやこうえん　こうしゅうといれ,天下茶屋公園　公衆トイレ（てんがちゃやこうえん　こうしゅうといれ）,,西成区,,公衆トイレ/公衆便所,169,29669
135.4932664,34.63679333,西皿池公園　公衆トイレ,にしさらいけこうえん　こうしゅうといれ,西皿池公園　公衆トイレ（にしさらいけこうえん　こうしゅうといれ）,,西成区,,公衆トイレ/公衆便所,169,29670
135.4989043,34.64526456,萩之茶屋,はぎのちゃや,萩之茶屋（はぎのちゃや）,,西成区,便器数　　男性用　小：５　　男女兼用　和：３,公衆トイレ/公衆便所,169,29558
135.5282455,34.59954203,矢田教育の森公園　公衆トイレ,やたきょういくのもりこうえん　こうしゅうといれ,矢田教育の森公園　公衆トイレ（やたきょういくのもりこうえん　こうしゅうといれ）,,東住吉区,,公衆トイレ/公衆便所,169,29661
135.5327063,34.60095953,矢田公園　公衆トイレ,やたこうえん　こうしゅうといれ,矢田公園　公衆トイレ（やたこうえん　こうしゅうといれ）,,東住吉区,,公衆トイレ/公衆便所,169,29658
135.5344311,34.60837603,照ヶ丘矢田公園　公衆トイレ,てるがおかやたこうえん　こうしゅうといれ,照ヶ丘矢田公園　公衆トイレ（てるがおかやたこうえん　こうしゅうといれ）,,東住吉区,,公衆トイレ/公衆便所,169,29660
135.5010582,34.62000425,万代池公園　公衆トイレ２,ばんだいいけこうえん　こうしゅうといれ２,万代池公園　公衆トイレ２（ばんだいいけこうえん　こうしゅうといれ２）,,住吉区,,公衆トイレ/公衆便所,169,29648
135.5008332,34.6475995,萩之茶屋北公園,はぎのちゃやきたこうえん,萩之茶屋北公園（はぎのちゃやきたこうえん）,,西成区,便器数　　男性用　小：２　　男女兼用　和：１,公衆トイレ/公衆便所,169,29551
135.5008231,34.64586944,萩之茶屋中公園,はぎのちゃやなかこうえん,萩之茶屋中公園（はぎのちゃやなかこうえん）,,西成区,便器数　　男性用　小：２　　男女兼用　和：１,公衆トイレ/公衆便所,169,29552
135.5024596,34.64699756,東入船町,ひがしいりふねちょう,東入船町（ひがしいりふねちょう）,,西成区,便器数　　男性用　小：２　　男女兼用　和：１,公衆トイレ/公衆便所,169,29553
135.5021732,34.64579036,今池町,いまいけちょう,今池町（いまいけちょう）,,西成区,便器数　　男性用　小：２　　男女兼用　和：１,公衆トイレ/公衆便所,169,29555
135.5012724,34.64484589,萩之茶屋南公園,はぎのちゃやみなみこうえん,萩之茶屋南公園（はぎのちゃやみなみこうえん）,,西成区,便器数　　男性用　小：５　　男女兼用　和：３,公衆トイレ/公衆便所,169,29557
135.4487048,34.660045,朝潮橋,あさしおばし,朝潮橋（あさしおばし）,,港区,便器数　　男性用　小：３　　男女兼用　和：１,公衆トイレ/公衆便所,169,29417
135.4621304,34.65981519,市岡公園　公衆トイレ,いちおかこうえん　こうしゅうといれ,市岡公園　公衆トイレ（いちおかこうえん　こうしゅうといれ）,,港区,,公衆トイレ/公衆便所,169,29537
135.4812113,34.65043061,北津守公園　公衆トイレ,きたつもりこうえん　こうしゅうといれ,北津守公園　公衆トイレ（きたつもりこうえん　こうしゅうといれ）,,西成区,,公衆トイレ/公衆便所,169,29672
135.4785231,34.65967961,三軒家公園　公衆トイレ,さんげんやこうえん　こうしゅうといれ,三軒家公園　公衆トイレ（さんげんやこうえん　こうしゅうといれ）,,大正区,,公衆トイレ/公衆便所,169,29541
135.4831031,34.66245083,芦原公園　公衆トイレ１,あしはらこうえん　こうしゅうといれ１,芦原公園　公衆トイレ１（あしはらこうえん　こうしゅうといれ１）,,浪速区,,公衆トイレ/公衆便所,169,29572
135.4838382,34.66153533,芦原公園　公衆トイレ２,あしはらこうえん　こうしゅうといれ２,芦原公園　公衆トイレ２（あしはらこうえん　こうしゅうといれ２）,,浪速区,,公衆トイレ/公衆便所,169,29573
135.4923474,34.65902494,塩草公園　公衆トイレ,しおくさこうえん　こうしゅうといれ,塩草公園　公衆トイレ（しおくさこうえん　こうしゅうといれ）,,浪速区,,公衆トイレ/公衆便所,169,29576
135.4580516,34.66505458,磯路中央公園　公衆トイレ２,いそじちゅうおうこうえん　こうしゅうといれ２,磯路中央公園　公衆トイレ２（いそじちゅうおうこうえん　こうしゅうといれ２）,,港区,,公衆トイレ/公衆便所,169,29567
135.4608698,34.67437253,波除公園　公衆トイレ２,なみよけこうえん　こうしゅうといれ２,波除公園　公衆トイレ２（なみよけこうえん　こうしゅうといれ２）,,港区,,公衆トイレ/公衆便所,169,29568
135.4720424,34.67552797,九条東公園　公衆トイレ,くじょうひがしこうえん　こうしゅうといれ,九条東公園　公衆トイレ（くじょうひがしこうえん　こうしゅうといれ）,,西区,,公衆トイレ/公衆便所,169,29524
135.4814336,34.67675725,松島公園　公衆トイレ１,まつしまこうえん　こうしゅうといれ１,松島公園　公衆トイレ１（まつしまこうえん　こうしゅうといれ１）,,西区,,公衆トイレ/公衆便所,169,29521
135.4272618,34.70004794,中島公園　公衆トイレ２,なかじまこうえん　こうしゅうといれ２,中島公園　公衆トイレ２（なかじまこうえん　こうしゅうといれ２）,,西淀川区,,公衆トイレ/公衆便所,169,29581
135.4465792,34.70134775,西姫島公園　公衆トイレ,にしひめじまこうえん　こうしゅうといれ,西姫島公園　公衆トイレ（にしひめじまこうえん　こうしゅうといれ）,,西淀川区,,公衆トイレ/公衆便所,169,29584
135.4676463,34.67895575,安治川トンネル南口,あじがわとんねるみなみぐち,安治川トンネル南口（あじがわとんねるみなみぐち）,,西区,便器数　　男性用　小：２　　男女兼用　和：１,公衆トイレ/公衆便所,169,29336
135.4659006,34.6821315,西九条駅前,にしくじょうえきまえ,西九条駅前（にしくじょうえきまえ）,,此花区,便器数　　男性用　小：３　　男女兼用　和：１,公衆トイレ/公衆便所,169,29334
135.4856101,34.67962025,島津公園　公衆トイレ,しまづこうえん　こうしゅうといれ,島津公園　公衆トイレ（しまづこうえん　こうしゅうといれ）,,西区,,公衆トイレ/公衆便所,169,29526
135.4836846,34.68640553,中之島西公園　公衆トイレ,なかのしまにしこうえん　こうしゅうといれ,中之島西公園　公衆トイレ（なかのしまにしこうえん　こうしゅうといれ）,,北区,,公衆トイレ/公衆便所,169,29566
135.4988968,34.68760511,御霊神社横,ごりょうじんじゃよこ,御霊神社横（ごりょうじんじゃよこ）,,中央区,便器数　　男性用　小：２　　男女兼用　和：１,公衆トイレ/公衆便所,169,29424
135.5057622,34.64882514,天王寺公園南口,てんのうじこうえんみなみぐち,天王寺公園南口（てんのうじこうえんみなみぐち）,,西成区,便器数　　男性用　小：４　　男女兼用　和：１,公衆トイレ/公衆便所,169,29554
135.5127805,34.64849961,茶臼山,ちゃうすやま,茶臼山（ちゃうすやま）,,天王寺区,便器数　　男性用　和：２　小：３　　女性用　和：３,公衆トイレ/公衆便所,169,37727
135.505961,34.65252414,新世界,しんせかい,新世界（しんせかい）,,浪速区,便器数　　男性用　小：２　　男女兼用　和：２,公衆トイレ/公衆便所,169,29427
135.5020661,34.65375156,恵美公園　公衆トイレ,えみこうえん　こうしゅうといれ,恵美公園　公衆トイレ（えみこうえん　こうしゅうといれ）,,浪速区,,公衆トイレ/公衆便所,169,29575
135.5129934,34.66589097,生玉町,いくたまちょう,生玉町（いくたまちょう）,,天王寺区,便器数　　男性用　小：２　　男女兼用　和：１,公衆トイレ/公衆便所,169,29421
135.5012259,34.66890542,戎橋,えびすばし,戎橋（えびすばし）,中央区道頓堀1-10,中央区,便器数　　男性用　洋：１　小：２　　女性用　洋：１,公衆トイレ/公衆便所,169,29299
135.527375,34.66971258,真田山公園　公衆トイレ２,さなだやまこうえん　こうしゅうといれ２,真田山公園　公衆トイレ２（さなだやまこうえん　こうしゅうといれ２）,,天王寺区,,公衆トイレ/公衆便所,169,29570
135.5111818,34.67358019,九之助橋,くのすけばし,九之助橋（くのすけばし）,,中央区,便器数　　男性用　小：２　　男女兼用　和：１,公衆トイレ/公衆便所,169,29426
135.5127017,34.67039342,瓦屋町公園　公衆トイレ１,かわらやまちこうえん　こうしゅうといれ１,瓦屋町公園　公衆トイレ１（かわらやまちこうえん　こうしゅうといれ１）,,中央区,,公衆トイレ/公衆便所,169,29520
135.5137581,34.67386683,空堀通,からほりどおり,空堀通（からほりどおり）,,中央区,便器数　　男性用　小：１,公衆トイレ/公衆便所,169,29425
135.5294993,34.67270031,宰相山公園　公衆トイレ,さいしょうやまこうえん　こうしゅうといれ,宰相山公園　公衆トイレ（さいしょうやまこうえん　こうしゅうといれ）,,天王寺区,,公衆トイレ/公衆便所,169,29571
135.5448787,34.67590472,東中元公園　公衆トイレ,ひがしなかもとこうえん　こうしゅうといれ,東中元公園　公衆トイレ（ひがしなかもとこうえん　こうしゅうといれ）,,東成区,,公衆トイレ/公衆便所,169,29615
135.5592144,34.67391744,深江公園　公衆トイレ,ふかえこうえん　こうしゅうといれ,深江公園　公衆トイレ（ふかえこうえん　こうしゅうといれ）,,東成区,,公衆トイレ/公衆便所,169,29613
135.5114789,34.69041158,天神橋南,てんじんばしみなみ,天神橋南（てんじんばしみなみ）,,中央区,便器数　　男性用　小：２　　男女兼用　和：１,公衆トイレ/公衆便所,169,29726
135.5143827,34.69205833,南天満公園　公衆トイレ２,みなみてんまこうえん　こうしゅうといれ２,南天満公園　公衆トイレ２（みなみてんまこうえん　こうしゅうといれ２）,,旭区,,公衆トイレ/公衆便所,169,29564
135.4441847,34.70828636,大和田北公園　公衆トイレ,おおわだきたこうえん　こうしゅうといれ,大和田北公園　公衆トイレ（おおわだきたこうえん　こうしゅうといれ）,,西淀川区,,公衆トイレ/公衆便所,169,29582
135.4610739,34.71352194,北之町公園　公衆トイレ,きたのまちこうえん　こうしゅうといれ,北之町公園　公衆トイレ（きたのまちこうえん　こうしゅうといれ）,,西淀川区,,公衆トイレ/公衆便所,169,29578
135.4636995,34.72010214,田川公園　公衆トイレ,たがわこうえん　こうしゅうといれ,田川公園　公衆トイレ（たがわこうえん　こうしゅうといれ）,,淀川区,,公衆トイレ/公衆便所,169,29601
135.4768798,34.71726456,十三公園　公衆トイレ２,じゅうそうこうえん　こうしゅうといれ２,十三公園　公衆トイレ２（じゅうそうこうえん　こうしゅうといれ２）,,淀川区,,公衆トイレ/公衆便所,169,29594
135.4983693,34.71475031,中津公園　公衆トイレ,なかつこうえんこうしゅうといれ,中津公園　公衆トイレ（なかつこうえんこうしゅうといれ）,,北区,,公衆トイレ/公衆便所,169,29565
135.5246787,34.71923789,友渕中央公園　公衆トイレ,ともぶちちゅうおうこうえん　こうしゅうといれ,友渕中央公園　公衆トイレ（ともぶちちゅうおうこうえん　こうしゅうといれ）,,都島区,,公衆トイレ/公衆便所,169,29495
135.5398903,34.71042458,野江,のえ,野江（のえ）,,城東区,便器数　　男性用　和：１　小：２　　女性用　和：２,公衆トイレ/公衆便所,169,29441
135.55479,34.72427083,千林町,せんばやしちょう,千林町（せんばやしちょう）,,旭区,便器数　　男性用　小：４　　男女兼用　和：２,公衆トイレ/公衆便所,169,29440
135.5384203,34.74938531,瑞光寺公園　公衆トイレ,ずいこうじこうえん　こうしゅうといれ,瑞光寺公園　公衆トイレ（ずいこうじこうえん　こうしゅうといれ）,,東淀川区,,公衆トイレ/公衆便所,169,29605
135.5437866,34.70927147,成育公園　公衆トイレ,,成育公園　公衆トイレ（）,,城東区,,公衆トイレ/公衆便所,169,29316
135.5398728,34.71795422,旭公園　公衆トイレ３,,旭公園　公衆トイレ３（）,,旭区,,公衆トイレ/公衆便所,169,29310
135.5423468,34.72358419,江野公園　公衆トイレ,,江野公園　公衆トイレ（）,,旭区,,公衆トイレ/公衆便所,169,29307
135.5399133,34.73021122,城北公園　公衆トイレ５,,城北公園　公衆トイレ５（）,,旭区,,公衆トイレ/公衆便所,169,29306
135.5421319,34.67427317,南中本公園,みなみなかもとこうえん,南中本公園（みなみなかもとこうえん）,,東成区,便器数　　男性用　小：２　　男女兼用　和：１　　車椅子対応：１,公衆トイレ/車いす対応公衆便所,209,29436
135.4633418,34.70876489,野里公園,のざとこうえん,野里公園（のざとこうえん）,,西淀川区,便器数　　男性用　小：２　　男女兼用　和：１　　車椅子対応：１,公衆トイレ/車いす対応公衆便所,209,29434
135.5597797,34.62332236,平野公園,ひらのこうえん,平野公園（ひらのこうえん）,,平野区,便器数　　男性用　小：２　　男女兼用　和：１　　車椅子対応：１,公衆トイレ/車いす対応公衆便所,209,29443
135.5305025,34.705904,都島公園,みやこじまこうえん,都島公園（みやこじまこうえん）,,都島区,便器数　　男性用　小：２　　男女兼用　和：１　　車椅子対応：１,公衆トイレ/車いす対応公衆便所,209,29332
135.462509,34.669526,弁天町,べんてんちょう,弁天町（べんてんちょう）,,港区,便器数　男性用　大：１　小：２　身１（ｵｽﾄﾒｲﾄ有）,公衆トイレ/車いす対応公衆便所,209,95147
135.520086,34.718185,蕪村公園　公衆トイレ,ぶそんこうえん　こうしゅうといれ,蕪村公園　公衆トイレ（ぶそんこうえん　こうしゅうといれ）,都島区毛馬町１丁目１２ 城北公園通,都島区,,公衆トイレ/車いす対応公衆便所,209,95131
135.56748,34.711777,花博記念公園鶴見緑地　公衆トイレ２６,はなはくきねんこうえんつるみりょくち　こうしゅうといれ２６,花博記念公園鶴見緑地　公衆トイレ２６（はなはくきねんこうえんつるみりょくち　こうしゅうといれ２６）,鶴見区緑３丁目１６−５８,鶴見区,,公衆トイレ/車いす対応公衆便所,209,95146
135.570136,34.709877,花博記念公園鶴見緑地　公衆トイレ２５,はなはくきねんこうえんつるみりょくち　こうしゅうといれ２５,花博記念公園鶴見緑地　公衆トイレ２５（はなはくきねんこうえんつるみりょくち　こうしゅうといれ２５）,鶴見区横堤４丁目２９−６０,鶴見区,,公衆トイレ/車いす対応公衆便所,209,95145
135.57984,34.712977,花博記念公園鶴見緑地　公衆トイレ２４,はなはくきねんこうえんつるみりょくち　こうしゅうといれ２４,花博記念公園鶴見緑地　公衆トイレ２４（はなはくきねんこうえんつるみりょくち　こうしゅうといれ２４）,鶴見区緑地公園２−１１０,鶴見区,,公衆トイレ/車いす対応公衆便所,209,95144
135.574347,34.71086,花博記念公園鶴見緑地　公衆トイレ２３,はなはくきねんこうえんつるみりょくち　こうしゅうといれ２３,花博記念公園鶴見緑地　公衆トイレ２３（はなはくきねんこうえんつるみりょくち　こうしゅうといれ２３）,鶴見区緑地公園２−１６３,鶴見区,,公衆トイレ/車いす対応公衆便所,209,95143
135.580392,34.705612,花博記念公園鶴見緑地　公衆トイレ２２,はなはくきねんこうえんつるみりょくち　こうしゅうといれ２２,花博記念公園鶴見緑地　公衆トイレ２２（はなはくきねんこうえんつるみりょくち　こうしゅうといれ２２）,鶴見区浜１丁目１ 府道8号線,鶴見区,,公衆トイレ/車いす対応公衆便所,209,95142
135.58057,34.707328,花博記念公園鶴見緑地　公衆トイレ２１,はなはくきねんこうえんつるみりょくち　こうしゅうといれ２１,花博記念公園鶴見緑地　公衆トイレ２１（はなはくきねんこうえんつるみりょくち　こうしゅうといれ２１）,鶴見区浜１丁目２−６,鶴見区,,公衆トイレ/車いす対応公衆便所,209,95141
135.576412,34.716006,花博記念公園鶴見緑地　公衆トイレ２０,はなはくきねんこうえんつるみりょくち　こうしゅうといれ２０,花博記念公園鶴見緑地　公衆トイレ２０（はなはくきねんこうえんつるみりょくち　こうしゅうといれ２０）,守口市南寺方東通４丁目２９−１０,大阪市以外,,公衆トイレ/車いす対応公衆便所,209,95140
135.56983,34.714397,花博記念公園鶴見緑地　公衆トイレ１９,はなはくきねんこうえんつるみりょくち　こうしゅうといれ１９,花博記念公園鶴見緑地　公衆トイレ１９（はなはくきねんこうえんつるみりょくち　こうしゅうといれ１９）,鶴見区緑３丁目１４−１９,鶴見区,,公衆トイレ/車いす対応公衆便所,209,95139
135.580376,34.714348,花博記念公園鶴見緑地　公衆トイレ１８,はなはくきねんこうえんつるみりょくち　こうしゅうといれ１８,花博記念公園鶴見緑地　公衆トイレ１８（はなはくきねんこうえんつるみりょくち　こうしゅうといれ１８）,鶴見区浜５丁目２−１４,鶴見区,,公衆トイレ/車いす対応公衆便所,209,95138
135.458357,34.719207,歌島公園　公衆トイレ,うたじまこうえん　こうしゅうといれ,歌島公園　公衆トイレ（うたじまこうえん　こうしゅうといれ）,西淀川区御幣島５丁目２−１５,西淀川区,,公衆トイレ/車いす対応公衆便所,209,95133
135.556524,34.718088,新森中央公園　公衆トイレ,しんもりちゅうおうこうえん　こうしゅうといれ,新森中央公園　公衆トイレ（しんもりちゅうおうこうえん　こうしゅうといれ）,旭区新森４丁目２２−３２,旭区,,公衆トイレ/車いす対応公衆便所,209,95137
135.52722,34.682651,大阪城公園　公衆トイレ１０,おおさかじょうこうえん　こうしゅうといれ１０,大阪城公園　公衆トイレ１０（おおさかじょうこうえん　こうしゅうといれ１０）,中央区大阪城３−１５,中央区,,公衆トイレ/車いす対応公衆便所,209,95132
135.421343,34.702159,中島公園　公衆トイレ４,なかじまこうえん　こうしゅうといれ４,中島公園　公衆トイレ４（なかじまこうえん　こうしゅうといれ４）,西淀川区中島２丁目３−８７,西淀川区,,公衆トイレ/車いす対応公衆便所,209,95135
135.423574,34.700942,中島公園　公衆トイレ３,なかじまこうえん　こうしゅうといれ３,中島公園　公衆トイレ３（なかじまこうえん　こうしゅうといれ３）,西淀川区中島１丁目３５−１０４,西淀川区,,公衆トイレ/車いす対応公衆便所,209,95134
135.4010481,34.63473119,野鳥園臨港緑地（公衆便所）,やちょうえんりんこうりょくちこうしゅうべんじょ,野鳥園臨港緑地（公衆便所）（やちょうえんりんこうりょくちこうしゅうべんじょ）,,住之江区,【男性用】洋：1　和：1　小：3　【女性用】洋：1　和：2　【障がい者用】洋：1,公衆トイレ/車いす対応公衆便所,209,29697
135.4113731,34.67564728,常吉西臨港緑地（公衆便所）,つねよしにしりんこうりょくちこうしゅうべんじょ,常吉西臨港緑地（公衆便所）（つねよしにしりんこうりょくちこうしゅうべんじょ）,,此花区,【男性用】和：1　小：2　【女性用】和：2　【障がい者用】洋：1,公衆トイレ/車いす対応公衆便所,209,29694
135.4096955,34.67276014,常吉西臨港緑地（公衆便所）,つねよしにしりんこうりょくちこうしゅうべんじょ,常吉西臨港緑地（公衆便所）（つねよしにしりんこうりょくちこうしゅうべんじょ）,,此花区,【男性用】和：1　小：2　【女性用】和：2　【障がい者用】洋：1,公衆トイレ/車いす対応公衆便所,209,29693
135.4310503,34.65610508,天保山ハーバービレッジ（公衆便所）,てんぽうざんはーばーびれっじこうしゅうべんじょ,天保山ハーバービレッジ（公衆便所）（てんぽうざんはーばーびれっじこうしゅうべんじょ）,大阪市港区海岸通１,港区,【男性用】和：1　小：2　【女性用】和：2　【障がい者用】洋：1,公衆トイレ/車いす対応公衆便所,209,29700
135.4470434,34.66174186,八幡屋公園　公衆トイレ１,,八幡屋公園　公衆トイレ１（）,,港区,,公衆トイレ/車いす対応公衆便所,209,29341
135.4478681,34.65752975,入船公園　公衆トイレ,いりふねこうえん　こうしゅうといれ,入船公園　公衆トイレ（いりふねこうえん　こうしゅうといれ）,,港区,,公衆トイレ/車いす対応公衆便所,209,29536
135.4699073,34.60704,新北島東公園　公衆トイレ,しんきたじまひがしこうえん　こうしゅうといれ,新北島東公園　公衆トイレ（しんきたじまひがしこうえん　こうしゅうといれ）,,住之江区,,公衆トイレ/車いす対応公衆便所,209,29636
135.4793356,34.60310756,敷津浦東公園　公衆トイレ,しきつうらひがしこうえん　こうしゅうといれ,敷津浦東公園　公衆トイレ（しきつうらひがしこうえん　こうしゅうといれ）,,住之江区,,公衆トイレ/車いす対応公衆便所,209,29639
135.4841454,34.60823997,浜口公園　公衆トイレ,はまぐちこうえん　こうしゅうといれ,浜口公園　公衆トイレ（はまぐちこうえん　こうしゅうといれ）,,住之江区,,公衆トイレ/車いす対応公衆便所,209,29637
135.4299231,34.63112675,ポートタウン東駅前公衆トイレ,ぽーとたうんひがしえきまえこうしゅうといれ,ポートタウン東駅前公衆トイレ（ぽーとたうんひがしえきまえこうしゅうといれ）,大阪市住之江区南港中２−１,住之江区,障害者用トイレあり,公衆トイレ/車いす対応公衆便所,209,29689
135.4313548,34.63173917,南港中央公園　公衆トイレ１,なんこうちゅうおうこうえん　こうしゅうといれ１,南港中央公園　公衆トイレ１（なんこうちゅうおうこうえん　こうしゅうといれ１）,,住之江区,,公衆トイレ/車いす対応公衆便所,209,29640
135.4621627,34.61298064,平林泉公園　公衆トイレ,ひらばやしいずみこうえん　こうしゅうといれ,平林泉公園　公衆トイレ（ひらばやしいずみこうえん　こうしゅうといれ）,,住之江区,,公衆トイレ/車いす対応公衆便所,209,29644
135.4658932,34.61729003,柴谷公園　公衆トイレ,しばたにこうえん　こうしゅうといれ,柴谷公園　公衆トイレ（しばたにこうえん　こうしゅうといれ）,,住之江区,,公衆トイレ/車いす対応公衆便所,209,29638
135.4819268,34.61945758,中加賀屋公園　公衆トイレ,なかかがやこうえん　こうしゅうといれ,中加賀屋公園　公衆トイレ（なかかがやこうえん　こうしゅうといれ）,,住之江区,,公衆トイレ/車いす対応公衆便所,209,29633
135.4345294,34.63103842,南港中央公園　公衆トイレ３,なんこうちゅうおうこうえん　こうしゅうといれ３,南港中央公園　公衆トイレ３（なんこうちゅうおうこうえん　こうしゅうといれ３）,,住之江区,,公衆トイレ/車いす対応公衆便所,209,29642
135.4331011,34.63252486,南港中央公園　公衆トイレ２,なんこうちゅうおうこうえん　こうしゅうといれ２,南港中央公園　公衆トイレ２（なんこうちゅうおうこうえん　こうしゅうといれ２）,,住之江区,,公衆トイレ/車いす対応公衆便所,209,29641
135.4555062,34.63617358,鶴町南公園　公衆トイレ,つるまちみなみこうえん　こうしゅうといれ,鶴町南公園　公衆トイレ（つるまちみなみこうえん　こうしゅうといれ）,,大正区,,公衆トイレ/車いす対応公衆便所,209,29542
135.4833962,34.6257625,南津守中央公園　公衆トイレ,みなみつもりちゅうおうこうえん　こうしゅうといれ,南津守中央公園　公衆トイレ（みなみつもりちゅうおうこうえん　こうしゅうといれ）,,西成区,,公衆トイレ/車いす対応公衆便所,209,29674
135.472161,34.634821,南恩加島公園　公衆トイレ,みなみおかじまこうえん　こうしゅうといれ,南恩加島公園　公衆トイレ（みなみおかじまこうえん　こうしゅうといれ）,,大正区,,公衆トイレ/車いす対応公衆便所,209,29543
135.4836226,34.63597883,南津守さくら公園　公衆トイレ,みなみつもりさくらこうえん　こうしゅうといれ,南津守さくら公園　公衆トイレ（みなみつもりさくらこうえん　こうしゅうといれ）,,西成区,,公衆トイレ/車いす対応公衆便所,209,29675
135.5005266,34.589055,山之内西公園　公衆トイレ,やまのうちにしこうえん　こうしゅうといれ,山之内西公園　公衆トイレ（やまのうちにしこうえん　こうしゅうといれ）,,住吉区,,公衆トイレ/車いす対応公衆便所,209,29650
135.5101873,34.59077442,浅香中央公園　公衆トイレ２,あさかちゅうおうこうえん　こうしゅうといれ２,浅香中央公園　公衆トイレ２（あさかちゅうおうこうえん　こうしゅうといれ２）,,住吉区,,公衆トイレ/車いす対応公衆便所,209,29652
135.5089423,34.5916315,浅香中央公園　公衆トイレ１,あさかちゅうおうこうえん　こうしゅうといれ１,浅香中央公園　公衆トイレ１（あさかちゅうおうこうえん　こうしゅうといれ１）,,住吉区,,公衆トイレ/車いす対応公衆便所,209,29651
135.5015163,34.60388317,沢之町公園　公衆トイレ,さわのちょうこうえん　こうしゅうといれ,沢之町公園　公衆トイレ（さわのちょうこうえん　こうしゅうといれ）,,住吉区,,公衆トイレ/車いす対応公衆便所,209,29649
135.5672225,34.59648625,川辺大和川公園　公衆トイレ,かわなべやまとがわこうえん　こうしゅうといれ,川辺大和川公園　公衆トイレ（かわなべやまとがわこうえん　こうしゅうといれ）,,平野区,,公衆トイレ/車いす対応公衆便所,209,29668
135.5774006,34.60341478,長吉東部中央公園　公衆トイレ,ながよしとうぶちゅうおうこうえん　こうしゅうといれ,長吉東部中央公園　公衆トイレ（ながよしとうぶちゅうおうこうえん　こうしゅうといれ）,,平野区,,公衆トイレ/車いす対応公衆便所,209,29664
135.5042955,34.61648053,万領中央公園　公衆トイレ,まんりょうちゅうおうこうえん　こうしゅうといれ,万領中央公園　公衆トイレ（まんりょうちゅうおうこうえん　こうしゅうといれ）,,住吉区,,公衆トイレ/車いす対応公衆便所,209,29653
135.5035234,34.62038017,万代池公園　公衆トイレ１,ばんだいいけこうえん　こうしゅうといれ１,万代池公園　公衆トイレ１（ばんだいいけこうえん　こうしゅうといれ１）,,住吉区,,公衆トイレ/車いす対応公衆便所,209,29647
135.519656,34.61141217,長居公園　公衆トイレ４,ながいこうえん　こうしゅうといれ４,長居公園　公衆トイレ４（ながいこうえん　こうしゅうといれ４）,,東住吉区,,公衆トイレ/車いす対応公衆便所,209,29375
135.5146677,34.61022036,長居公園　公衆トイレ１,ながいこうえん　こうしゅうといれ１,長居公園　公衆トイレ１（ながいこうえん　こうしゅうといれ１）,,東住吉区,,公衆トイレ/車いす対応公衆便所,209,29372
135.5156715,34.60973978,長居公園　公衆トイレ２,ながいこうえん　こうしゅうといれ２,長居公園　公衆トイレ２（ながいこうえん　こうしゅうといれ２）,,東住吉区,,公衆トイレ/車いす対応公衆便所,209,29373
135.5206936,34.61112308,長居植物園　公衆トイレ１,ながいしょくぶつえん　こうしゅうといれ１,長居植物園　公衆トイレ１（ながいしょくぶつえん　こうしゅうといれ１）,,東住吉区,,公衆トイレ/車いす対応公衆便所,209,29367
135.5260538,34.61285681,長居植物園　公衆トイレ３,ながいしょくぶつえん　こうしゅうといれ３,長居植物園　公衆トイレ３（ながいしょくぶつえん　こうしゅうといれ３）,,天王寺区,,公衆トイレ/車いす対応公衆便所,209,29369
135.5253269,34.61001444,長居植物園　公衆トイレ２,ながいしょくぶつえん　こうしゅうといれ２,長居植物園　公衆トイレ２（ながいしょくぶつえん　こうしゅうといれ２）,,東住吉区,,公衆トイレ/車いす対応公衆便所,209,29368
135.5264318,34.60990022,長居公園　公衆トイレ３,ながいこうえん　こうしゅうといれ３,長居公園　公衆トイレ３（ながいこうえん　こうしゅうといれ３）,,東住吉区,,公衆トイレ/車いす対応公衆便所,209,29374
135.5196924,34.61330522,長居公園　公衆トイレ６,ながいこうえん　こうしゅうといれ６,長居公園　公衆トイレ６（ながいこうえん　こうしゅうといれ６）,,東住吉区,,公衆トイレ/車いす対応公衆便所,209,29377
135.5242718,34.61460233,長居植物園　公衆トイレ４,ながいしょくぶつえん　こうしゅうといれ４,長居植物園　公衆トイレ４（ながいしょくぶつえん　こうしゅうといれ４）,,東住吉区,,公衆トイレ/車いす対応公衆便所,209,29370
135.5238554,34.61350742,長居植物園　公衆トイレ５,ながいしょくぶつえん　こうしゅうといれ５,長居植物園　公衆トイレ５（ながいしょくぶつえん　こうしゅうといれ５）,,天王寺区,,公衆トイレ/車いす対応公衆便所,209,29371
135.5263968,34.61477383,長居公園　公衆トイレ５,ながいこうえん　こうしゅうといれ５,長居公園　公衆トイレ５（ながいこうえん　こうしゅうといれ５）,,東住吉区,,公衆トイレ/車いす対応公衆便所,209,29376
135.5187337,34.62320556,長池公園　公衆トイレ,ながいけこうえん　こうしゅうといれ,長池公園　公衆トイレ（ながいけこうえん　こうしゅうといれ）,,阿倍野区,,公衆トイレ/車いす対応公衆便所,209,29630
135.4896256,34.62668061,玉出西公園　公衆トイレ,たまでにしこうえん　こうしゅうといれ,玉出西公園　公衆トイレ（たまでにしこうえん　こうしゅうといれ）,,西成区,,公衆トイレ/車いす対応公衆便所,209,29671
135.5217554,34.63083072,桃ヶ池公園　公衆トイレ,ももがいけこうえん　こうしゅうといれ,桃ヶ池公園　公衆トイレ（ももがいけこうえん　こうしゅうといれ）,,阿倍野区,,公衆トイレ/車いす対応公衆便所,209,29631
135.5346527,34.62647992,今川公園　公衆トイレ,いまがわこうえん　こうしゅうといれ,今川公園　公衆トイレ（いまがわこうえん　こうしゅうといれ）,,東住吉区,,公衆トイレ/車いす対応公衆便所,209,29657
135.5347295,34.63122025,うるし堤公園　公衆トイレ,うるしつつみこうえん　こうしゅうといれ,うるし堤公園　公衆トイレ（うるしつつみこうえん　こうしゅうといれ）,,東住吉区,,公衆トイレ/車いす対応公衆便所,209,29659
135.541161,34.613059,喜連西中央公園　公衆トイレ,きれにしちゅうおうこうえん　こうしゅうといれ,喜連西中央公園　公衆トイレ（きれにしちゅうおうこうえん　こうしゅうといれ）,,平野区,,公衆トイレ/車いす対応公衆便所,209,29666
135.565336,34.61329375,長吉出戸公園　公衆トイレ,ながよしでとこうえん　こうしゅうといれ,長吉出戸公園　公衆トイレ（ながよしでとこうえん　こうしゅうといれ）,,平野区,,公衆トイレ/車いす対応公衆便所,209,29665
135.5459829,34.61933042,平野西公園　公衆トイレ,ひらのにしこうえん　こうしゅうといれ,平野西公園　公衆トイレ（ひらのにしこうえん　こうしゅうといれ）,,平野区,,公衆トイレ/車いす対応公衆便所,209,29663
135.5591181,34.62211961,平野公園　公衆トイレ,ひらのこうえん　こうしゅうといれ,平野公園　公衆トイレ（ひらのこうえん　こうしゅうといれ）,,平野区,,公衆トイレ/車いす対応公衆便所,209,29686
135.5710028,34.62282708,鞍作公園　公衆トイレ,くらつくりこうえん　こうしゅうといれ,鞍作公園　公衆トイレ（くらつくりこうえん　こうしゅうといれ）,,平野区,,公衆トイレ/車いす対応公衆便所,209,29662
135.5422201,34.62770772,平野白鷺公園　公衆トイレ１,ひらのしらさぎこうえん　こうしゅうといれ１,平野白鷺公園　公衆トイレ１（ひらのしらさぎこうえん　こうしゅうといれ１）,,東住吉区,,公衆トイレ/車いす対応公衆便所,209,29655
135.5419884,34.62649544,平野白鷺公園　公衆トイレ２,ひらのしらさぎこうえん　こうしゅうといれ２,平野白鷺公園　公衆トイレ２（ひらのしらさぎこうえん　こうしゅうといれ２）,,東住吉区,,公衆トイレ/車いす対応公衆便所,209,29656
135.5423576,34.63288372,育和公園　公衆トイレ,いくわこうえん　こうしゅうといれ,育和公園　公衆トイレ（いくわこうえん　こうしゅうといれ）,,東住吉区,,公衆トイレ/車いす対応公衆便所,209,29654
135.4286659,34.65375006,天保山西岸壁　公衆トイレ,てんぽうざんにしがんぺき　こうしゅうといれ,天保山西岸壁　公衆トイレ（てんぽうざんにしがんぺき　こうしゅうといれ）,,港区,【男性用】和：1　小：2　【女性用】和：2　【障がい者用】洋：1,公衆トイレ/車いす対応公衆便所,209,29701
135.4558687,34.63891861,鶴町中央公園　公衆トイレ,つるまちちゅうおうこうえん　こうしゅうといれ,鶴町中央公園　公衆トイレ（つるまちちゅうおうこうえん　こうしゅうといれ）,,大正区,,公衆トイレ/車いす対応公衆便所,209,29540
135.4372796,34.65348183,築港南公園　公衆トイレ,ちっこうみなみこうえん　こうしゅうといれ,築港南公園　公衆トイレ（ちっこうみなみこうえん　こうしゅうといれ）,,港区,,公衆トイレ/車いす対応公衆便所,209,29527
135.4729681,34.64076964,平尾公園　公衆トイレ,ひらおこうえん　こうしゅうといれ,平尾公園　公衆トイレ（ひらおこうえん　こうしゅうといれ）,,大正区,,公衆トイレ/車いす対応公衆便所,209,29549
135.4745022,34.64354667,小林公園　公衆トイレ,こばやしこうえん　こうしゅうといれ,小林公園　公衆トイレ（こばやしこうえん　こうしゅうといれ）,,大正区,,公衆トイレ/車いす対応公衆便所,209,29544
135.4820164,34.64616911,西成公園　公衆トイレ,にしなりこうえん　こうしゅうといれ,西成公園　公衆トイレ（にしなりこうえん　こうしゅうといれ）,,西成区,,公衆トイレ/車いす対応公衆便所,209,29673
135.4720451,34.64933947,千島公園　公衆トイレ１,ちしまこうえん　こうしゅうといれ１,千島公園　公衆トイレ１（ちしまこうえん　こうしゅうといれ１）,,大正区,,公衆トイレ/車いす対応公衆便所,209,29545
135.4672973,34.64904611,北村南公園　公衆トイレ,きたむらみなみこうえん　こうしゅうといれ,北村南公園　公衆トイレ（きたむらみなみこうえん　こうしゅうといれ）,,大正区,,公衆トイレ/車いす対応公衆便所,209,29550
135.4739713,34.64988856,千島公園　公衆トイレ２,ちしまこうえん　こうしゅうといれ２,千島公園　公衆トイレ２（ちしまこうえん　こうしゅうといれ２）,,大正区,,公衆トイレ/車いす対応公衆便所,209,29546
135.4737651,34.64790989,千島公園　公衆トイレ３,ちしまこうえん　こうしゅうといれ３,千島公園　公衆トイレ３（ちしまこうえん　こうしゅうといれ３）,,大正区,,公衆トイレ/車いす対応公衆便所,209,29547
135.4763065,34.64824206,千島公園　公衆トイレ４,ちしまこうえん　こうしゅうといれ４,千島公園　公衆トイレ４（ちしまこうえん　こうしゅうといれ４）,,大正区,,公衆トイレ/車いす対応公衆便所,209,29548
135.4330398,34.65714475,天保山公園　公衆トイレ,てんぽうざんこうえん　こうしゅうといれ,天保山公園　公衆トイレ（てんぽうざんこうえん　こうしゅうといれ）,,港区,,公衆トイレ/車いす対応公衆便所,209,29529
135.445898,34.65967997,八幡屋公園　公衆トイレ３,やはたやこうえん　こうしゅうといれ３,八幡屋公園　公衆トイレ３（やはたやこうえん　こうしゅうといれ３）,,港区,,公衆トイレ/車いす対応公衆便所,209,29343
135.4519563,34.65676494,池島公園　公衆トイレ,いけじまこうえん　こうしゅうといれ,池島公園　公衆トイレ（いけじまこうえん　こうしゅうといれ）,,港区,,公衆トイレ/車いす対応公衆便所,209,29534
135.4473506,34.65967517,八幡屋公園　公衆トイレ２,やはたやこうえん　こうしゅうといれ２,八幡屋公園　公衆トイレ２（やはたやこうえん　こうしゅうといれ２）,,港区,,公衆トイレ/車いす対応公衆便所,209,29342
135.4522089,34.65964453,三先公園　公衆トイレ　,みさきこうえん　こうしゅうといれ,三先公園　公衆トイレ　（みさきこうえん　こうしゅうといれ）,,港区,,公衆トイレ/車いす対応公衆便所,209,29530
135.4519987,34.66276078,夕凪公園　公衆トイレ,ゆうなぎこうえん　こうしゅうといれ,夕凪公園　公衆トイレ（ゆうなぎこうえん　こうしゅうといれ）,,港区,,公衆トイレ/車いす対応公衆便所,209,29535
135.4515264,34.66519608,東田中公園　公衆トイレ,ひがしたなかこうえん　こうしゅうといれ,東田中公園　公衆トイレ（ひがしたなかこうえん　こうしゅうといれ）,,港区,,公衆トイレ/車いす対応公衆便所,209,29528
135.4683941,34.65594364,泉尾公園　公衆トイレ１,いずおこうえん　こうしゅうといれ１,泉尾公園　公衆トイレ１（いずおこうえん　こうしゅうといれ１）,,大正区,,公衆トイレ/車いす対応公衆便所,209,29538
135.4684231,34.65779169,泉尾公園　公衆トイレ２,いずおこうえん　こうしゅうといれ２,泉尾公園　公衆トイレ２（いずおこうえん　こうしゅうといれ２）,,大正区,,公衆トイレ/車いす対応公衆便所,209,29539
135.4645558,34.66741042,市岡元町公園　公衆トイレ,いちおかもとまちこうえん　こうしゅうといれ,市岡元町公園　公衆トイレ（いちおかもとまちこうえん　こうしゅうといれ）,,港区,,公衆トイレ/車いす対応公衆便所,209,29531
135.4598639,34.66635275,磯路中央公園　公衆トイレ１,いそじちゅうおうこうえん　こうしゅうといれ１,磯路中央公園　公衆トイレ１（いそじちゅうおうこうえん　こうしゅうといれ１）,,港区,,公衆トイレ/車いす対応公衆便所,209,29532
135.4798591,34.66680233,大正橋,たいしょうばし,大正橋（たいしょうばし）,,大正区,便器数　　男性用　小：２　　男女兼用　和：１　　車椅子対応：１,公衆トイレ/車いす対応公衆便所,209,29419
135.4183766,34.68777797,矢倉緑地公園　公衆トイレ,やくらりょくちこうえん　こうしゅうといれ,矢倉緑地公園　公衆トイレ（やくらりょくちこうえん　こうしゅうといれ）,,西淀川区,,公衆トイレ/車いす対応公衆便所,209,29591
135.4576743,34.67938164,春日出公園　公衆トイレ,かすがでこうえん　こうしゅうといれ,春日出公園　公衆トイレ（かすがでこうえん　こうしゅうといれ）,,此花区,,公衆トイレ/車いす対応公衆便所,209,29510
135.4507557,34.68234906,此花公園　公衆トイレ,このはなこうえん　こうしゅうといれ,此花公園　公衆トイレ（このはなこうえん　こうしゅうといれ）,,此花区,,公衆トイレ/車いす対応公衆便所,209,29508
135.4556894,34.68118189,梅香公園　公衆トイレ,ばいかこうえん　こうしゅうといれ,梅香公園　公衆トイレ（ばいかこうえん　こうしゅうといれ）,,此花区,,公衆トイレ/車いす対応公衆便所,209,29509
135.4597353,34.68225892,梅香東公園　公衆トイレ,ばいかひがしこうえん　こうしゅうといれ,梅香東公園　公衆トイレ（ばいかひがしこうえん　こうしゅうといれ）,,此花区,,公衆トイレ/車いす対応公衆便所,209,29512
135.4601415,34.67418339,波除公園　公衆トイレ１,なみよけこうえん　こうしゅうといれ１,波除公園　公衆トイレ１（なみよけこうえん　こうしゅうといれ１）,,港区,,公衆トイレ/車いす対応公衆便所,209,29533
135.4675344,34.67557044,九条北公園　公衆トイレ,くじょうきたこうえん　こうしゅうといれ,九条北公園　公衆トイレ（くじょうきたこうえん　こうしゅうといれ）,,西区,,公衆トイレ/車いす対応公衆便所,209,29523
135.4847093,34.67084369,日吉公園　公衆トイレ,ひよしこうえん　こうしゅうといれ,日吉公園　公衆トイレ（ひよしこうえん　こうしゅうといれ）,,西区,,公衆トイレ/車いす対応公衆便所,209,29525
135.4638848,34.68193353,西九条西公園　公衆トイレ,にしくじょうにしこうえん　こうしゅうといれ,西九条西公園　公衆トイレ（にしくじょうにしこうえん　こうしゅうといれ）,,此花区,,公衆トイレ/車いす対応公衆便所,209,29511
135.462251,34.68150839,旭橋公園　公衆トイレ,あさひばしこうえん　こうしゅうといれ,旭橋公園　公衆トイレ（あさひばしこうえん　こうしゅうといれ）,,此花区,,公衆トイレ/車いす対応公衆便所,209,29516
135.4802943,34.67695303,松島公園　公衆トイレ２,まつしまこうえん　こうしゅうといれ２,松島公園　公衆トイレ２（まつしまこうえん　こうしゅうといれ２）,,西区,,公衆トイレ/車いす対応公衆便所,209,29522
135.4513021,34.68871236,伝法公園　公衆トイレ,でんぽうこうえん　こうしゅうといれ,伝法公園　公衆トイレ（でんぽうこうえん　こうしゅうといれ）,,此花区,,公衆トイレ/車いす対応公衆便所,209,29515
135.4550946,34.68777833,伝法東公園　公衆トイレ,でんぽうひがしこうえん　こうしゅうといれ,伝法東公園　公衆トイレ（でんぽうひがしこうえん　こうしゅうといれ）,,此花区,,公衆トイレ/車いす対応公衆便所,209,29514
135.4382107,34.69432106,新淀川公園　公衆トイレ,しんよどがわこうえん　こうしゅうといれ,新淀川公園　公衆トイレ（しんよどがわこうえん　こうしゅうといれ）,,西淀川区,,公衆トイレ/車いす対応公衆便所,209,29588
135.443451,34.69701764,福町西公園　公衆トイレ,ふくまちにしこうえん　こうしゅうといれ,福町西公園　公衆トイレ（ふくまちにしこうえん　こうしゅうといれ）,,西淀川区,,公衆トイレ/車いす対応公衆便所,209,29587
135.4584531,34.69151769,高見公園　公衆トイレ,たかみこうえん　こうしゅうといれ,高見公園　公衆トイレ（たかみこうえん　こうしゅうといれ）,,此花区,,公衆トイレ/車いす対応公衆便所,209,29513
135.4652424,34.68400778,西九条公園　公衆トイレ,にしくじょうこうえん　こうしゅうといれ,西九条公園　公衆トイレ（にしくじょうこうえん　こうしゅうといれ）,,此花区,,公衆トイレ/車いす対応公衆便所,209,29507
135.4604986,34.68881392,千鳥橋みどり公園　公衆トイレ,ちどりばしみどりこうえん　こうしゅうといれ,千鳥橋みどり公園　公衆トイレ（ちどりばしみどりこうえん　こうしゅうといれ）,,此花区,,公衆トイレ/車いす対応公衆便所,209,29517
135.4629314,34.68990783,高見新家公園　公衆トイレ,たかみしんけこうえん　こうしゅうといれ,高見新家公園　公衆トイレ（たかみしんけこうえん　こうしゅうといれ）,,此花区,,公衆トイレ/車いす対応公衆便所,209,29519
135.4707899,34.68936347,吉野町公園　公衆トイレ,よしのちょうこうえん　こうしゅうといれ,吉野町公園　公衆トイレ（よしのちょうこうえん　こうしゅうといれ）,,福島区,,公衆トイレ/車いす対応公衆便所,209,29502
135.4685646,34.68746958,新家公園　公衆トイレ,しんけこうえん　こうしゅうといれ,新家公園　公衆トイレ（しんけこうえん　こうしゅうといれ）,,福島区,,公衆トイレ/車いす対応公衆便所,209,29505
135.4831227,34.69047547,下福島公園　公衆トイレ,しもふくしまこうえん　こうしゅうといれ,下福島公園　公衆トイレ（しもふくしまこうえん　こうしゅうといれ）,,福島区,,公衆トイレ/車いす対応公衆便所,209,29499
135.473305,34.69182531,江成公園　公衆トイレ,えなりこうえん　こうしゅうといれ,江成公園　公衆トイレ（えなりこうえん　こうしゅうといれ）,,旭区,,公衆トイレ/車いす対応公衆便所,209,29501
135.4702105,34.69530783,海老江公園　公衆トイレ,えびえこうえん　こうしゅうといれ,海老江公園　公衆トイレ（えびえこうえん　こうしゅうといれ）,,福島区,,公衆トイレ/車いす対応公衆便所,209,29506
135.4850064,34.69587542,福島公園　公衆トイレ,ふくしまこうえん　こうしゅうといれ,福島公園　公衆トイレ（ふくしまこうえん　こうしゅうといれ）,,福島区,,公衆トイレ/車いす対応公衆便所,209,29498
135.4810779,34.69679975,鷺洲中公園　公衆トイレ,さぎすなかこうえん　こうしゅうといれ,鷺洲中公園　公衆トイレ（さぎすなかこうえん　こうしゅうといれ）,,都島区,,公衆トイレ/車いす対応公衆便所,209,29504
135.4925455,34.64635167,鶴見橋中央公園　公衆トイレ,つるみばしちゅうおうこうえん　こうしゅうといれ,鶴見橋中央公園　公衆トイレ（つるみばしちゅうおうこうえん　こうしゅうといれ）,,西成区,,公衆トイレ/車いす対応公衆便所,209,29676
135.5069743,34.64938308,天王寺動物園　公衆トイレ１,てんのうじどうぶつえん　こうしゅうといれ１,天王寺動物園　公衆トイレ１（てんのうじどうぶつえん　こうしゅうといれ１）,,天王寺区,,公衆トイレ/車いす対応公衆便所,209,29357
135.5099609,34.64928258,天王寺公園　公衆トイレ１,てんのうじこうえｎ　こうしゅうといれ１,天王寺公園　公衆トイレ１（てんのうじこうえｎ　こうしゅうといれ１）,,天王寺区,,公衆トイレ/車いす対応公衆便所,209,29352
135.5118771,34.64801667,天王寺公園　公衆トイレ２,てんのうじこうえん　こうしゅうといれ２,天王寺公園　公衆トイレ２（てんのうじこうえん　こうしゅうといれ２）,,天王寺区,,公衆トイレ/車いす対応公衆便所,209,29353
135.5110652,34.64928111,天王寺公園　公衆トイレ３,てんのうじこうえん　こうしゅうといれ３,天王寺公園　公衆トイレ３（てんのうじこうえん　こうしゅうといれ３）,,天王寺区,,公衆トイレ/車いす対応公衆便所,209,29354
135.5097137,34.64963064,天王寺公園　公衆トイレ４,てんのうじこうえん　こうしゅうといれ４,天王寺公園　公衆トイレ４（てんのうじこうえん　こうしゅうといれ４）,,天王寺区,,公衆トイレ/車いす対応公衆便所,209,29355
135.5072849,34.6498745,天王寺動物園　公衆トイレ２,てんのうじどうぶつえん　こうしゅうといれ２,天王寺動物園　公衆トイレ２（てんのうじどうぶつえん　こうしゅうといれ２）,,天王寺区,,公衆トイレ/車いす対応公衆便所,209,29358
135.5084592,34.64963692,天王寺動物園　公衆トイレ３,てんのうじどうぶつえん　こうしゅうといれ３,天王寺動物園　公衆トイレ３（てんのうじどうぶつえん　こうしゅうといれ３）,,天王寺区,,公衆トイレ/車いす対応公衆便所,209,29359
135.5122025,34.65190006,天王寺公園　公衆トイレ５,てんのうじこうえん　こうしゅうといれ５,天王寺公園　公衆トイレ５（てんのうじこうえん　こうしゅうといれ５）,,天王寺区,,公衆トイレ/車いす対応公衆便所,209,29356
135.5086384,34.65039292,天王寺動物園　公衆トイレ４,てんのうじどうぶつえん　こうしゅうといれ４,天王寺動物園　公衆トイレ４（てんのうじどうぶつえん　こうしゅうといれ４）,,天王寺区,,公衆トイレ/車いす対応公衆便所,209,29360
135.5074243,34.65053997,天王寺動物園　公衆トイレ５,てんのうじどうぶつえん　こうしゅうといれ５,天王寺動物園　公衆トイレ５（てんのうじどうぶつえん　こうしゅうといれ５）,,天王寺区,,公衆トイレ/車いす対応公衆便所,209,29361
135.5074762,34.65094014,天王寺動物園　公衆トイレ６,てんのうじどうぶつえん　こうしゅうといれ６,天王寺動物園　公衆トイレ６（てんのうじどうぶつえん　こうしゅうといれ６）,,天王寺区,,公衆トイレ/車いす対応公衆便所,209,29362
135.5082914,34.65138869,天王寺動物園　公衆トイレ７,てんのうじどうぶつえん　こうしゅうといれ７,天王寺動物園　公衆トイレ７（てんのうじどうぶつえん　こうしゅうといれ７）,,天王寺区,,公衆トイレ/車いす対応公衆便所,209,29363
135.5094644,34.65137094,天王寺動物園　公衆トイレ８,てんのうじどうぶつえん　こうしゅうといれ８,天王寺動物園　公衆トイレ８（てんのうじどうぶつえん　こうしゅうといれ８）,,天王寺区,,公衆トイレ/車いす対応公衆便所,209,29364
135.5092293,34.65312786,天王寺動物園　公衆トイレ９,てんのじどうぶつえん　こうしゅうといれ９,天王寺動物園　公衆トイレ９（てんのじどうぶつえん　こうしゅうといれ９）,,天王寺区,,公衆トイレ/車いす対応公衆便所,209,29365
135.5083804,34.65376114,天王寺動物園　公衆トイレ１０,てんのうじどうぶつえん　こうしゅうといれ１０,天王寺動物園　公衆トイレ１０（てんのうじどうぶつえん　こうしゅうといれ１０）,,天王寺区,,公衆トイレ/車いす対応公衆便所,209,29366
135.4931371,34.66190664,浪速公園　公衆トイレ,なにわこうえん　こうしゅうといれ,浪速公園　公衆トイレ（なにわこうえん　こうしゅうといれ）,,浪速区,,公衆トイレ/車いす対応公衆便所,209,29574
135.529721,34.659994,桃谷公園　公衆トイレ,ももだにこうえん　こうしゅうといれ,桃谷公園　公衆トイレ（ももだにこうえん　こうしゅうといれ）,,生野区,,公衆トイレ/車いす対応公衆便所,209,29619
135.5605801,34.64490686,巽東緑地　公衆トイレ,たつみひがしりょくち　こうしゅうといれ,巽東緑地　公衆トイレ（たつみひがしりょくち　こうしゅうといれ）,,生野区,,公衆トイレ/車いす対応公衆便所,209,29623
135.5465341,34.65178256,巽公園　公衆トイレ,たつみこうえん　こうしゅうといれ,巽公園　公衆トイレ（たつみこうえん　こうしゅうといれ）,,生野区,,公衆トイレ/車いす対応公衆便所,209,29621
135.5032923,34.66890839,太左衛門橋,たざえもんばし,太左衛門橋（たざえもんばし）,,中央区,便器数　　男性用　小：３　　車椅子対応：１,公衆トイレ/車いす対応公衆便所,209,29300
135.5043709,34.66919983,相合橋,あいあうばし,相合橋（あいあうばし）,,中央区,便器数　　男性用　小：１　　女性用　洋：１　　車椅子対応：１,公衆トイレ/車いす対応公衆便所,209,29433
135.5281747,34.67058364,真田山公園　公衆トイレ１,さなだやまこうえん　こうしゅうといれ１,真田山公園　公衆トイレ１（さなだやまこうえん　こうしゅうといれ１）,,天王寺区,,公衆トイレ/車いす対応公衆便所,209,29569
135.5328653,34.66962761,東小橋公園　公衆トイレ,ひがしこはしこうえん　こうしゅうといれ,東小橋公園　公衆トイレ（ひがしこはしこうえん　こうしゅうといれ）,,東成区,,公衆トイレ/車いす対応公衆便所,209,29616
135.533473,34.673189,東小橋北公園　公衆トイレ,ひがしこはしきたこうえん　こうしゅうといれ,東小橋北公園　公衆トイレ（ひがしこはしきたこうえん　こうしゅうといれ）,,東成区,,公衆トイレ/車いす対応公衆便所,209,29617
135.5296489,34.68237194,大阪城公園　公衆トイレ１１,おおさかじょうこうえん　こうしゅうといれ１１,大阪城公園　公衆トイレ１１（おおさかじょうこうえん　こうしゅうといれ１１）,,中央区,,公衆トイレ/車いす対応公衆便所,209,29388
135.5329778,34.68231692,大阪城公園　公衆トイレ１４,おおさかじょうこうえん　こうしゅうといれ１４,大阪城公園　公衆トイレ１４（おおさかじょうこうえん　こうしゅうといれ１４）,,中央区,,公衆トイレ/車いす対応公衆便所,209,29391
135.4894201,34.68352875,靭公園　公衆トイレ１,うつぼこうえん　こうしゅうといれ１,靭公園　公衆トイレ１（うつぼこうえん　こうしゅうといれ１）,,西区,,公衆トイレ/車いす対応公衆便所,209,29348
135.4931196,34.68527942,靭公園　公衆トイレ２,うつぼこうえん　こうしゅうといれ２,靭公園　公衆トイレ２（うつぼこうえん　こうしゅうといれ２）,,西区,,公衆トイレ/車いす対応公衆便所,209,29349
135.4950438,34.68632981,靭公園　公衆トイレ３,うつぼこうえん　こうしゅうといれ３,靭公園　公衆トイレ３（うつぼこうえん　こうしゅうといれ３）,,西区,,公衆トイレ/車いす対応公衆便所,209,29350
135.4961366,34.68605244,靭公園　公衆トイレ４,うつぼこうえん　こうしゅうといれ４,靭公園　公衆トイレ４（うつぼこうえん　こうしゅうといれ４）,,西区,,公衆トイレ/車いす対応公衆便所,209,29351
135.5125798,34.69232167,南天満公園　公衆トイレ１,みなみてんまこうえん　こうしゅうといれ１,南天満公園　公衆トイレ１（みなみてんまこうえん　こうしゅうといれ１）,,北区,,公衆トイレ/車いす対応公衆便所,209,29480
135.5262627,34.68659575,大阪城公園　公衆トイレ１,おおさかじょうこうえん　こうしゅうといれ１,大阪城公園　公衆トイレ１（おおさかじょうこうえん　こうしゅうといれ１）,,中央区,,公衆トイレ/車いす対応公衆便所,209,29378
135.5253949,34.68676711,大阪城公園　公衆トイレ２,おおさかじょうこうえん　こうしゅうといれ２,大阪城公園　公衆トイレ２（おおさかじょうこうえん　こうしゅうといれ２）,,中央区,,公衆トイレ/車いす対応公衆便所,209,29379
135.5251011,34.68572928,大阪城公園　公衆トイレ３,おおさかじょうこうえん　こうしゅうといれ３,大阪城公園　公衆トイレ３（おおさかじょうこうえん　こうしゅうといれ３）,,中央区,,公衆トイレ/車いす対応公衆便所,209,29380
135.5255243,34.68447464,大阪城公園　公衆トイレ７,おおさかじょうこうえん　こうしゅうといれ７,大阪城公園　公衆トイレ７（おおさかじょうこうえん　こうしゅうといれ７）,,中央区,,公衆トイレ/車いす対応公衆便所,209,29384
135.5215822,34.6856255,大阪城公園　公衆トイレ８,おおさかじょうこうえん　こうしゅうといれ８,大阪城公園　公衆トイレ８（おおさかじょうこうえん　こうしゅうといれ８）,,中央区,,公衆トイレ/車いす対応公衆便所,209,29385
135.5220168,34.68354794,大阪城公園　公衆トイレ９,大阪城公園　公衆トイレ９,大阪城公園　公衆トイレ９（大阪城公園　公衆トイレ９）,,中央区,,公衆トイレ/車いす対応公衆便所,209,29386
135.5261899,34.68972281,大阪城公園　公衆トイレ５,おおさかじょうこうえん　こうしゅうといれ５,大阪城公園　公衆トイレ５（おおさかじょうこうえん　こうしゅうといれ５）,,中央区,,公衆トイレ/車いす対応公衆便所,209,29382
135.5228758,34.6884025,大阪城公園　公衆トイレ６,おおさかじょうこうえん　こうしゅうといれ６,大阪城公園　公衆トイレ６（おおさかじょうこうえん　こうしゅうといれ６）,,中央区,,公衆トイレ/車いす対応公衆便所,209,29383
135.5283081,34.68676711,大阪城公園　公衆トイレ４,おおさかじょうこうえん　こうしゅうといれ４,大阪城公園　公衆トイレ４（おおさかじょうこうえん　こうしゅうといれ４）,,中央区,,公衆トイレ/車いす対応公衆便所,209,29381
135.5304298,34.68426225,大阪城公園　公衆トイレ１２,おおさかじょうこうえん　こうしゅうといれ１２,大阪城公園　公衆トイレ１２（おおさかじょうこうえん　こうしゅうといれ１２）,,中央区,,公衆トイレ/車いす対応公衆便所,209,29389
135.5320905,34.68362664,大阪城公園　公衆トイレ１３,おおさかじょうこうえん　こうしゅうといれ１３,大阪城公園　公衆トイレ１３（おおさかじょうこうえん　こうしゅうといれ１３）,,中央区,,公衆トイレ/車いす対応公衆便所,209,29390
135.5332284,34.68634089,大阪城公園　公衆トイレ１５,おおさかじょうこうえん　こうしゅうといれ１５,大阪城公園　公衆トイレ１５（おおさかじょうこうえん　こうしゅうといれ１５）,,中央区,,公衆トイレ/車いす対応公衆便所,209,29392
135.5314713,34.68942736,大阪城公園　公衆トイレ１７,おおさかじょうこうえん　こうしゅうといれ１７,大阪城公園　公衆トイレ１７（おおさかじょうこうえん　こうしゅうといれ１７）,,中央区,,公衆トイレ/車いす対応公衆便所,209,29394
135.5285224,34.68990083,大阪城公園　公衆トイレ１８,おおさかじょうこうえん　こうしゅうといれ１８,大阪城公園　公衆トイレ１８（おおさかじょうこうえん　こうしゅうといれ１８）,,中央区,,公衆トイレ/車いす対応公衆便所,209,29395
135.5323398,34.68906469,大阪城公園　公衆トイレ１６,おおさかじょうこうえん　こうしゅうといれ１６,大阪城公園　公衆トイレ１６（おおさかじょうこうえん　こうしゅうといれ１６）,,中央区,,公衆トイレ/車いす対応公衆便所,209,29393
135.520352,34.69310311,毛馬桜之宮公園　公衆トイレ１,けまさくらのみやこうえん　こうしゅうといれ１,毛馬桜之宮公園　公衆トイレ１（けまさくらのみやこうえん　こうしゅうといれ１）,,北区,,公衆トイレ/車いす対応公衆便所,209,29325
135.5144278,34.69393292,滝川公園　公衆トイレ,たきがわこうえん　こうしゅうといれ,滝川公園　公衆トイレ（たきがわこうえん　こうしゅうといれ）,,北区,,公衆トイレ/車いす対応公衆便所,209,29482
135.5237827,34.69557889,毛馬桜之宮公園　公衆トイレ２,けまさくらのみやこうえん　こうしゅうといれ２,毛馬桜之宮公園　公衆トイレ２（けまさくらのみやこうえん　こうしゅうといれ２）,,都島区,,公衆トイレ/車いす対応公衆便所,209,29337
135.5621445,34.67567942,東深江公園　公衆トイレ,ひがしふかえこうえん　こうしゅうといれ,東深江公園　公衆トイレ（ひがしふかえこうえん　こうしゅうといれ）,,東成区,,公衆トイレ/車いす対応公衆便所,209,29618
135.5477913,34.67770175,神路公園　公衆トイレ,かみじこうえん　こうしゅうといれ,神路公園　公衆トイレ（かみじこうえん　こうしゅうといれ）,,東成区,,公衆トイレ/車いす対応公衆便所,209,29614
135.5656473,34.69769636,鶴見中央公園　公衆トイレ,つるみちゅうおうこうえん　こうしゅうといれ,鶴見中央公園　公衆トイレ（つるみちゅうおうこうえん　こうしゅうといれ）,,鶴見区,,公衆トイレ/車いす対応公衆便所,209,29629
135.5696924,34.69136958,今津中公園　公衆トイレ１,いまづなかこうえん　こうしゅうといれ１,今津中公園　公衆トイレ１（いまづなかこうえん　こうしゅうといれ１）,,鶴見区,,公衆トイレ/車いす対応公衆便所,209,29624
135.5710789,34.691059,今津中公園　公衆トイレ２,いまづなかこうえん　こうしゅうといれ２,今津中公園　公衆トイレ２（いまづなかこうえん　こうしゅうといれ２）,,鶴見区,,公衆トイレ/車いす対応公衆便所,209,29625
135.4251658,34.70028019,中島公園　公衆トイレ１,なかじまこうえん　こうしゅうといれ１,中島公園　公衆トイレ１（なかじまこうえん　こうしゅうといれ１）,,西淀川区,,公衆トイレ/車いす対応公衆便所,209,29580
135.4453415,34.69801656,福町東公園　公衆トイレ,ふくまちひがしこうえん　こうしゅうといれ,福町東公園　公衆トイレ（ふくまちひがしこうえん　こうしゅうといれ）,,西淀川区,,公衆トイレ/車いす対応公衆便所,209,29585
135.4523807,34.70454592,姫島公園　公衆トイレ,ひめじまこうえん　こうしゅうといれ,姫島公園　公衆トイレ（ひめじまこうえん　こうしゅうといれ）,,西淀川区,,公衆トイレ/車いす対応公衆便所,209,29579
135.443292,34.705688,大和田中央公園　公衆トイレ,おおわだちゅうおうこうえん　こうしゅうといれ,大和田中央公園　公衆トイレ（おおわだちゅうおうこうえん　こうしゅうといれ）,,西淀川区,,公衆トイレ/車いす対応公衆便所,209,29589
135.4345038,34.71112536,佃公園　公衆トイレ,つくだこうえん　こうしゅうといれ,佃公園　公衆トイレ（つくだこうえん　こうしゅうといれ）,,西淀川区,,公衆トイレ/車いす対応公衆便所,209,29577
135.4512414,34.70610342,西淀公園　公衆トイレ,にしよどこうえん　こうしゅうといれ,西淀公園　公衆トイレ（にしよどこうえん　こうしゅうといれ）,,西淀川区,,公衆トイレ/車いす対応公衆便所,209,29586
135.4830263,34.701422,浦江公園　公衆トイレ,うらえこうえん　こうしゅうといれ,浦江公園　公衆トイレ（うらえこうえん　こうしゅうといれ）,,北区,,公衆トイレ/車いす対応公衆便所,209,29478
135.486205,34.70064725,神福島北公園　公衆トイレ,かみふくしまきたこうえん　こうしゅうといれ,神福島北公園　公衆トイレ（かみふくしまきたこうえん　こうしゅうといれ）,,福島区,,公衆トイレ/車いす対応公衆便所,209,29503
135.4487459,34.71390075,佃ふれあい公園　公衆トイレ,つくだふれあいこうえん　こうしゅうといれ,佃ふれあい公園　公衆トイレ（つくだふれあいこうえん　こうしゅうといれ）,,西淀川区,,公衆トイレ/車いす対応公衆便所,209,29592
135.4574452,34.71770981,御幣島東公園　公衆トイレ,みてじまひがしこうえん　こうしゅうといれ,御幣島東公園　公衆トイレ（みてじまひがしこうえん　こうしゅうといれ）,,西淀川区,,公衆トイレ/車いす対応公衆便所,209,29590
135.449039,34.72733081,竹島西公園　公衆トイレ,たけしまにしこうえん　こうしゅうといれ,竹島西公園　公衆トイレ（たけしまにしこうえん　こうしゅうといれ）,,西淀川区,,公衆トイレ/車いす対応公衆便所,209,29583
135.4591902,34.72482756,加島南公園　公衆トイレ,かしまみなみこうえん　こうしゅうといれ,加島南公園　公衆トイレ（かしまみなみこうえん　こうしゅうといれ）,,淀川区,,公衆トイレ/車いす対応公衆便所,209,29603
135.460064,34.71552306,大野川遊歩道,おおのがわゆうほどう,大野川遊歩道（おおのがわゆうほどう）,,西淀川区,便器数　　男性用　和：１　小：２　　女性用　和：２　　車椅子対応：１,公衆トイレ/車いす対応公衆便所,209,29435
135.4681853,34.71578444,塚本公園　公衆トイレ,つかもとこうえん　こうしゅうといれ,塚本公園　公衆トイレ（つかもとこうえん　こうしゅうといれ）,,淀川区,,公衆トイレ/車いす対応公衆便所,209,29595
135.4782118,34.71705597,十三公園　公衆トイレ１,じゅうそうこうえん　こうしゅうといれ１,十三公園　公衆トイレ１（じゅうそうこうえん　こうしゅうといれ１）,,淀川区,,公衆トイレ/車いす対応公衆便所,209,29593
135.4826908,34.72638133,野中南公園　公衆トイレ,のなかみなみこうえん　こうしゅうといれ,野中南公園　公衆トイレ（のなかみなみこうえん　こうしゅうといれ）,,淀川区,,公衆トイレ/車いす対応公衆便所,209,29602
135.4595169,34.72833378,加島中央公園　公衆トイレ,かしまちゅうおうこうえん　こうしゅうといれ,加島中央公園　公衆トイレ（かしまちゅうおうこうえん　こうしゅうといれ）,,淀川区,,公衆トイレ/車いす対応公衆便所,209,29600
135.4780184,34.73553475,新高中央公園　公衆トイレ,にいたかちゅうおうこうえん　こうしゅうといれ,新高中央公園　公衆トイレ（にいたかちゅうおうこうえん　こうしゅうといれ）,,淀川区,,公衆トイレ/車いす対応公衆便所,209,29604
135.5087725,34.70473681,扇町公園　公衆トイレ１,おうぎまちこうえん　こうしゅうといれ１,扇町公園　公衆トイレ１（おうぎまちこうえん　こうしゅうといれ１）,,北区,,公衆トイレ/車いす対応公衆便所,209,29413
135.4981598,34.71136756,豊崎西公園　公衆トイレ,とよさきにしこうえん　こうしゅうといれ,豊崎西公園　公衆トイレ（とよさきにしこうえん　こうしゅうといれ）,,北区,,公衆トイレ/車いす対応公衆便所,209,29479
135.5114425,34.71056561,天六,てんろく,天六（てんろく）,,北区,便器数　　男性用　洋：１　和：１　小：２　　女性用　洋：１　和：１　　車椅子対応：１,公衆トイレ/車いす対応公衆便所,209,29416
135.5147721,34.7014135,与力町公園　公衆トイレ,よりきちょうこうえん　こうしゅうといれ,与力町公園　公衆トイレ（よりきちょうこうえん　こうしゅうといれ）,,北区,,公衆トイレ/車いす対応公衆便所,209,29483
135.5230853,34.70062992,毛馬桜之宮公園　公衆トイレ３,けまさくらのみやこうえん　こうしゅうといれ３,毛馬桜之宮公園　公衆トイレ３（けまさくらのみやこうえん　こうしゅうといれ３）,,都島区,,公衆トイレ/車いす対応公衆便所,209,29338
135.518927,34.70590439,毛馬桜之宮公園　公衆トイレ４,けまさくらのみやこうえん　こうしゅうといれ４,毛馬桜之宮公園　公衆トイレ４（けまさくらのみやこうえん　こうしゅうといれ４）,,都島区,,公衆トイレ/車いす対応公衆便所,209,29339
135.5226104,34.70690725,都島中央公園　公衆トイレ,みやこじまちゅうおうこうえん　こうしゅうといれ,都島中央公園　公衆トイレ（みやこじまちゅうおうこうえん　こうしゅうといれ）,,都島区,,公衆トイレ/車いす対応公衆便所,209,29496
135.5161607,34.71121214,鶴満寺公園　公衆トイレ,かくまんじこうえん　こうしゅうといれ,鶴満寺公園　公衆トイレ（かくまんじこうえん　こうしゅうといれ）,,北区,,公衆トイレ/車いす対応公衆便所,209,29415
135.5196196,34.71216211,長柄東公園　公衆トイレ,ながらひがしこうえん　こうしゅうといれ,長柄東公園　公衆トイレ（ながらひがしこうえん　こうしゅうといれ）,,北区,,公衆トイレ/車いす対応公衆便所,209,29486
135.5040449,34.71514647,本庄公園　公衆トイレ,ほんじょうこうえん　こうしゅうといれ,本庄公園　公衆トイレ（ほんじょうこうえん　こうしゅうといれ）,,北区,,公衆トイレ/車いす対応公衆便所,209,29481
135.5220801,34.7164815,毛馬桜之宮公園　公衆トイレ５,けまさくらのみやこうえん　こうしゅうといれ５,毛馬桜之宮公園　公衆トイレ５（けまさくらのみやこうえん　こうしゅうといれ５）,,都島区,,公衆トイレ/車いす対応公衆便所,209,29340
135.5365729,34.71338719,内代公園　公衆トイレ,うちんだいこうえん　こうしゅうといれ,内代公園　公衆トイレ（うちんだいこうえん　こうしゅうといれ）,,都島区,,公衆トイレ/車いす対応公衆便所,209,29493
135.5220451,34.72271003,毛馬中央公園　公衆トイレ,けまちゅうおうこうえん　こうしゅうといれ,毛馬中央公園　公衆トイレ（けまちゅうおうこうえん　こうしゅうといれ）,,都島区,,公衆トイレ/車いす対応公衆便所,209,29497
135.5636551,34.71153225,花博記念公園鶴見緑地　公衆トイレ１７,はなはくきねんこうえんつるみりょくち　こうしゅうといれ１７,花博記念公園鶴見緑地　公衆トイレ１７（はなはくきねんこうえんつるみりょくち　こうしゅうといれ１７）,,鶴見区,,公衆トイレ/車いす対応公衆便所,209,29412
135.5729917,34.71093411,花博記念公園鶴見緑地　公衆トイレ９,はなはくきねんこうえんつるみりょくち９,花博記念公園鶴見緑地　公衆トイレ９（はなはくきねんこうえんつるみりょくち９）,,大阪市以外,,公衆トイレ/車いす対応公衆便所,209,29404
135.5692679,34.71069558,花博記念公園鶴見緑地　公衆トイレ１１,はなはくきねんこうえんつるみりょくち１１,花博記念公園鶴見緑地　公衆トイレ１１（はなはくきねんこうえんつるみりょくち１１）,,鶴見区,,公衆トイレ/車いす対応公衆便所,209,29406
135.569619,34.71266906,花博記念公園鶴見緑地　公衆トイレ１２,はなはくきねんこうえんつるみりょくち　こうしゅうといれ１２,花博記念公園鶴見緑地　公衆トイレ１２（はなはくきねんこうえんつるみりょくち　こうしゅうといれ１２）,,大阪市以外,,公衆トイレ/車いす対応公衆便所,209,29407
135.5760572,34.71199267,花博記念公園鶴見緑地　公衆トイレ５,はなはくきねんこうえんつるみりょくち　こうしゅうといれ５,花博記念公園鶴見緑地　公衆トイレ５（はなはくきねんこうえんつるみりょくち　こうしゅうといれ５）,,鶴見区,,公衆トイレ/車いす対応公衆便所,209,29400
135.5778197,34.71157064,花博記念公園鶴見緑地　公衆トイレ６,はなはくきねんこうえんつるみりょくち　こうしゅうといれ６,花博記念公園鶴見緑地　公衆トイレ６（はなはくきねんこうえんつるみりょくち　こうしゅうといれ６）,,鶴見区,,公衆トイレ/車いす対応公衆便所,209,29401
135.5762404,34.710765,花博記念公園鶴見緑地　公衆トイレ７,はなはくきねんこうえんつるみりょくち　こうしゅうといれ７,花博記念公園鶴見緑地　公衆トイレ７（はなはくきねんこうえんつるみりょくち　こうしゅうといれ７）,,鶴見区,,公衆トイレ/車いす対応公衆便所,209,29402
135.5786908,34.70926372,花博記念公園鶴見緑地　公衆トイレ８,はなはくきねんこうえんつるみりょくち　こうしゅうといれ８,花博記念公園鶴見緑地　公衆トイレ８（はなはくきねんこうえんつるみりょくち　こうしゅうといれ８）,,鶴見区,,公衆トイレ/車いす対応公衆便所,209,29403
135.5940156,34.71172311,茨田大宮西公園　公衆トイレ,まったおおみやにしこうえん　こうしゅうといれ,茨田大宮西公園　公衆トイレ（まったおおみやにしこうえん　こうしゅうといれ）,,鶴見区,,公衆トイレ/車いす対応公衆便所,209,29627
135.5722856,34.71292603,花博記念公園鶴見緑地　公衆トイレ１０,はなはくきねんこうえんつるみりょくち　こうしゅうといれ１０,花博記念公園鶴見緑地　公衆トイレ１０（はなはくきねんこうえんつるみりょくち　こうしゅうといれ１０）,,大阪市以外,,公衆トイレ/車いす対応公衆便所,209,29405
135.5690409,34.71632347,花博記念公園鶴見緑地　公衆トイレ１３,はなはくきねんこうえんつるみりょくち　こうしゅうといれ１３,花博記念公園鶴見緑地　公衆トイレ１３（はなはくきねんこうえんつるみりょくち　こうしゅうといれ１３）,,大阪市以外,,公衆トイレ/車いす対応公衆便所,209,29408
135.5728771,34.71601039,花博記念公園鶴見緑地　公衆トイレ１４,はなはくきねんこうえんつるみりょくち　こうしゅうといれ１４,花博記念公園鶴見緑地　公衆トイレ１４（はなはくきねんこうえんつるみりょくち　こうしゅうといれ１４）,,大阪市以外,,公衆トイレ/車いす対応公衆便所,209,29409
135.5779457,34.71634894,花博記念公園鶴見緑地　公衆トイレ２,はなはくきねんこうえんつるみりょくち　こうしゅうといれ２,花博記念公園鶴見緑地　公衆トイレ２（はなはくきねんこうえんつるみりょくち　こうしゅうといれ２）,,鶴見区,,公衆トイレ/車いす対応公衆便所,209,29397
135.5784692,34.71526903,花博記念公園鶴見緑地　公衆トイレ３,はなはくきねんこうえんつるみりょくち　こうしゅうといれ３,花博記念公園鶴見緑地　公衆トイレ３（はなはくきねんこうえんつるみりょくち　こうしゅうといれ３）,,鶴見区,,公衆トイレ/車いす対応公衆便所,209,29398
135.5775758,34.71392514,花博記念公園鶴見緑地　公衆トイレ４,はなはくきねんこうえんつるみりょくち　こうしゅうといれ４,花博記念公園鶴見緑地　公衆トイレ４（はなはくきねんこうえんつるみりょくち　こうしゅうといれ４）,,鶴見区,,公衆トイレ/車いす対応公衆便所,209,29399
135.5744651,34.71504125,花博記念公園鶴見緑地　公衆トイレ１５,はなはくきねんこうえんつるみりょくち　こうしゅうといれ１５,花博記念公園鶴見緑地　公衆トイレ１５（はなはくきねんこうえんつるみりょくち　こうしゅうといれ１５）,,大阪市以外,,公衆トイレ/車いす対応公衆便所,209,29410
135.5752905,34.71505528,花博記念公園鶴見緑地　公衆トイレ１６,はなはくきねんこうえんつるみりょくち　こうしゅうといれ１６,花博記念公園鶴見緑地　公衆トイレ１６（はなはくきねんこうえんつるみりょくち　こうしゅうといれ１６）,,大阪市以外,,公衆トイレ/車いす対応公衆便所,209,29411
135.5760612,34.71651178,花博記念公園鶴見緑地　公衆トイレ１,はなはくつるみりょくちきねんこうえん　こうしゅうといれ１,花博記念公園鶴見緑地　公衆トイレ１（はなはくつるみりょくちきねんこうえん　こうしゅうといれ１）,,鶴見区,,公衆トイレ/車いす対応公衆便所,209,29396
135.4870169,34.73104878,三国本町公園　公衆トイレ,みくにほんまちこうえん　こうしゅうといれ,三国本町公園　公衆トイレ（みくにほんまちこうえん　こうしゅうといれ）,,淀川区,,公衆トイレ/車いす対応公衆便所,209,29596
135.4952162,34.73769108,北中島公園,北中島公園　公衆トイレ,北中島公園（北中島公園　公衆トイレ）,きたなかじまこうえん　こうしゅうといれ,淀川区,,公衆トイレ/車いす対応公衆便所,209,29599
135.5034358,34.73694661,日之出公園　公衆トイレ,ひのでこうえん　こうしゅうといれ,日之出公園　公衆トイレ（ひのでこうえん　こうしゅうといれ）,,東淀川区,,公衆トイレ/車いす対応公衆便所,209,29608
135.5084363,34.73849906,西淡路公園　公衆トイレ,にしあわじこうえん　こうしゅうといれ,西淡路公園　公衆トイレ（にしあわじこうえん　こうしゅうといれ）,,東淀川区,,公衆トイレ/車いす対応公衆便所,209,29610
135.5129018,34.73778114,淡路３公園　公衆トイレ,あわじ３こうえん　こうしゅうといれ,淡路３公園　公衆トイレ（あわじ３こうえん　こうしゅうといれ）,,東淀川区,,公衆トイレ/車いす対応公衆便所,209,29612
135.5401612,34.72906467,城北公園　公衆トイレ１,しろきたこうえん　こうしゅうといれ１,城北公園　公衆トイレ１（しろきたこうえん　こうしゅうといれ１）,,旭区,,公衆トイレ/車いす対応公衆便所,209,29344
135.5383266,34.73007169,城北公園　公衆トイレ２,しろきたこうえん　こうしゅうといれ２,城北公園　公衆トイレ２（しろきたこうえん　こうしゅうといれ２）,,旭区,,公衆トイレ/車いす対応公衆便所,209,29345
135.537981,34.72840833,城北公園　公衆トイレ３,しろきたこうえん　こうしゅうといれ３,城北公園　公衆トイレ３（しろきたこうえん　こうしゅうといれ３）,,旭区,,公衆トイレ/車いす対応公衆便所,209,29346
135.5359483,34.729398,城北公園　公衆トイレ４,しろきたこうえん　こうしゅうといれ４,城北公園　公衆トイレ４（しろきたこうえん　こうしゅうといれ４）,,旭区,,公衆トイレ/車いす対応公衆便所,209,29347
135.4899678,34.748149,十八条中央公園　公衆トイレ,じゅうはちじょうちゅうおうこうえん　こうしゅうといれ,十八条中央公園　公衆トイレ（じゅうはちじょうちゅうおうこうえん　こうしゅうといれ）,,淀川区,,公衆トイレ/車いす対応公衆便所,209,29598
135.4963548,34.74695581,十八条東公園　公衆トイレ,じゅうはちじょうひがしこうえん　こうしゅうといれ,十八条東公園　公衆トイレ（じゅうはちじょうひがしこうえん　こうしゅうといれ）,,淀川区,,公衆トイレ/車いす対応公衆便所,209,29597
135.5157342,34.74264728,淡路公園　公衆トイレ,あわじこうえん　こうしゅうといれ,淡路公園　公衆トイレ（あわじこうえん　こうしゅうといれ）,,東淀川区,,公衆トイレ/車いす対応公衆便所,209,29606
135.5429303,34.74194639,豊里中央公園　公衆トイレ,とよさとちゅうおうこうえん　こうしゅうといれ,豊里中央公園　公衆トイレ（とよさとちゅうおうこうえん　こうしゅうといれ）,,東淀川区,,公衆トイレ/車いす対応公衆便所,209,29607
135.544467,34.75797308,北江口中央公園　公衆トイレ,きたえぐちちゅうおうこうえん　こうしゅうといれ,北江口中央公園　公衆トイレ（きたえぐちちゅうおうこうえん　こうしゅうといれ）,,東淀川区,,公衆トイレ/車いす対応公衆便所,209,29611
135.5439664,34.76507406,井高野公園　公衆トイレ,いたかのこうえん　こうしゅうといれ,井高野公園　公衆トイレ（いたかのこうえん　こうしゅうといれ）,,東成区,,公衆トイレ/車いす対応公衆便所,209,29609
135.5981099,34.71248039,茨田大宮中央公園　公衆トイレ,まったおおみやちゅうおうこうえん　こうしゅうといれ,茨田大宮中央公園　公衆トイレ（まったおおみやちゅうおうこうえん　こうしゅうといれ）,,鶴見区,,公衆トイレ/車いす対応公衆便所,209,29628
135.5039734,34.63594925,聖天山公園　公衆トイレ,,聖天山公園　公衆トイレ（）,,阿倍野区,,公衆トイレ/車いす対応公衆便所,209,29632
135.4011316,34.66299908,舞洲運動広場（公衆便所）,,舞洲運動広場（公衆便所）（）,,此花区,【男性用】洋：1　和：2　小：10　【女性用】洋：4　和：5　【障がい者用】洋：1,公衆トイレ/車いす対応公衆便所,209,29692
135.3964613,34.66477308,舞洲体育館（公衆便所）,,舞洲体育館（公衆便所）（）,,此花区,【男性用】洋：1(乳幼児イス設置)　和：1　小：5　【女性用】洋：2(1箇所乳幼児イス設置)　和：3　【障がい者用】洋：2(2箇所とも乳幼児ベッド設置),公衆トイレ/車いす対応公衆便所,209,29702
135.5074816,34.69271939,中之島公園　公衆トイレ１,,中之島公園　公衆トイレ１（）,,北区,,公衆トイレ/車いす対応公衆便所,209,29323
135.5103598,34.69169975,中之島公園　公衆トイレ２,,中之島公園　公衆トイレ２（）,,北区,,公衆トイレ/車いす対応公衆便所,209,29324
135.5486718,34.68467778,東中浜公園　公衆トイレ,,東中浜公園　公衆トイレ（）,,城東区,,公衆トイレ/車いす対応公衆便所,209,29318
135.5571212,34.68624414,左専道公園　公衆トイレ,,左専道公園　公衆トイレ（）,,城東区,,公衆トイレ/車いす対応公衆便所,209,29317
135.5409286,34.69157122,鴫野公園　公衆トイレ,,鴫野公園　公衆トイレ（）,,城東区,,公衆トイレ/車いす対応公衆便所,209,29321
135.544812,34.69540236,鴫野北公園　公衆トイレ,,鴫野北公園　公衆トイレ（）,,城東区,,公衆トイレ/車いす対応公衆便所,209,29322
135.5573213,34.69280508,西放出公園　公衆トイレ,,西放出公園　公衆トイレ（）,,城東区,,公衆トイレ/車いす対応公衆便所,209,29320
135.5404859,34.71933167,旭公園　公衆トイレ１,,旭公園　公衆トイレ１（）,,旭区,,公衆トイレ/車いす対応公衆便所,209,29308
135.5442865,34.70446061,蒲生公園　公衆トイレ,,蒲生公園　公衆トイレ（）,,城東区,,公衆トイレ/車いす対応公衆便所,209,29313
135.5524865,34.70410947,鯰江公園　公衆トイレ,,鯰江公園　公衆トイレ（）,,城東区,,公衆トイレ/車いす対応公衆便所,209,29314
135.5583325,34.70300539,東今福公園　公衆トイレ,,東今福公園　公衆トイレ（）,,城東区,,公衆トイレ/車いす対応公衆便所,209,29319
135.5481773,34.70844364,西関目公園　公衆トイレ,,西関目公園　公衆トイレ（）,,城東区,,公衆トイレ/車いす対応公衆便所,209,29315
135.5407979,34.71759536,旭公園　公衆トイレ２,,旭公園　公衆トイレ２（）,,旭区,,公衆トイレ/車いす対応公衆便所,209,29309
135.5491347,34.71795311,高殿７公園　公衆トイレ,,高殿７公園　公衆トイレ（）,,旭区,,公衆トイレ/車いす対応公衆便所,209,29312
135.5553748,34.73606739,太子橋中公園　公衆トイレ,,太子橋中公園　公衆トイレ（）,,旭区,,公衆トイレ/車いす対応公衆便所,209,29311
